{
  "type": "FeatureCollection",
  "features": [
    {
      "type": "Feature",
      "geometry": {
        "type": "Point",
        "coordinates": [
          129.2321,
          35.2592
        ]
      },
      "properties": {
        "id": "waste-geo-ilgwang-general-2",
        "name": "일광 주차장 옆 쓰레기통",
        "type": "generalTrash",
        "address": "부산광역시 기장군 일광읍 일광해수욕장 주차장",
        "status": "available"
      }
    },
    {
      "type": "Feature",
      "geometry": {
        "type": "Point",
        "coordinates": [
          129.2342,
          35.2618
        ]
      },
      "properties": {
        "id": "waste-geo-ilgwang-recycling-1",
        "name": "일광 해안로 재활용 수거함",
        "type": "recycling",
        "address": "부산광역시 기장군 일광읍 해안로",
        "status": "available"
      }
    },
    {
      "type": "Feature",
      "geometry": {
        "type": "Point",
        "coordinates": [
          129.2338,
          35.2556
        ]
      },
      "properties": {
        "id": "waste-geo-ilgwang-line-2",
        "name": "일광 남측 폐낚싯줄 수거함",
        "type": "fishingLine",
        "address": "부산광역시 기장군 일광읍 학리 남측",
        "status": "available"
      }
    },
    {
      "type": "Feature",
      "geometry": {
        "type": "Point",
        "coordinates": [
          129.2268,
          35.2256
        ]
      },
      "properties": {
        "id": "waste-geo-daebyeon-general-2",
        "name": "대변항 어판장 인근 쓰레기통",
        "type": "generalTrash",
        "address": "부산광역시 기장군 기장읍 대변항 어판장",
        "status": "available"
      }
    },
    {
      "type": "Feature",
      "geometry": {
        "type": "Point",
        "coordinates": [
          129.2274,
          35.2232
        ]
      },
      "properties": {
        "id": "waste-geo-daebyeon-line-1",
        "name": "대변항 방파제 폐낚싯줄 수거함",
        "type": "fishingLine",
        "address": "부산광역시 기장군 기장읍 대변항 방파제",
        "status": "available"
      }
    },
    {
      "type": "Feature",
      "geometry": {
        "type": "Point",
        "coordinates": [
          129.2254,
          35.2245
        ]
      },
      "properties": {
        "id": "waste-geo-daebyeon-recycling-1",
        "name": "대변항 입구 재활용 수거함",
        "type": "recycling",
        "address": "부산광역시 기장군 기장읍 기장해안로 대변항 입구",
        "status": "unknown"
      }
    },
    {
      "type": "Feature",
      "geometry": {
        "type": "Point",
        "coordinates": [
          129.2638,
          35.3196
        ]
      },
      "properties": {
        "id": "waste-geo-imrang-general-1",
        "name": "임랑 산책로 쓰레기통",
        "type": "generalTrash",
        "address": "부산광역시 기장군 장안읍 임랑해수욕장 산책로",
        "status": "available"
      }
    },
    {
      "type": "Feature",
      "geometry": {
        "type": "Point",
        "coordinates": [
          129.2628,
          35.3164
        ]
      },
      "properties": {
        "id": "waste-geo-imrang-recycling-1",
        "name": "임랑 남측 재활용 수거함",
        "type": "recycling",
        "address": "부산광역시 기장군 장안읍 임랑리",
        "status": "available"
      }
    },
    {
      "type": "Feature",
      "geometry": {
        "type": "Point",
        "coordinates": [
          129.2148,
          35.2442
        ]
      },
      "properties": {
        "id": "waste-geo-gijang-general-1",
        "name": "기장읍 해안로 쓰레기통",
        "type": "generalTrash",
        "address": "부산광역시 기장군 기장읍 기장해안로",
        "status": "available"
      }
    },
    {
      "type": "Feature",
      "geometry": {
        "type": "Point",
        "coordinates": [
          129.2162,
          35.2428
        ]
      },
      "properties": {
        "id": "waste-geo-gijang-line-1",
        "name": "기장 해안 폐낚싯줄 수거함",
        "type": "fishingLine",
        "address": "부산광역시 기장군 기장읍 해안 산책로",
        "status": "temporarilyUnavailable"
      }
    },
    {
      "type": "Feature",
      "geometry": {
        "type": "Point",
        "coordinates": [
          129.1998,
          35.1786
        ]
      },
      "properties": {
        "id": "waste-geo-songjeong-general-1",
        "name": "송정해수욕장 산책로 쓰레기통",
        "type": "generalTrash",
        "address": "부산광역시 해운대구 송정동 송정해수욕장",
        "status": "available"
      }
    },
    {
      "type": "Feature",
      "geometry": {
        "type": "Point",
        "coordinates": [
          129.2272,
          35.1908
        ]
      },
      "properties": {
        "id": "waste-geo-jukseong-general-1",
        "name": "죽성리 해안 쓰레기통",
        "type": "generalTrash",
        "address": "부산광역시 기장군 기장읍 죽성리",
        "status": "available"
      }
    },
    {
      "type": "Feature",
      "geometry": {
        "type": "Point",
        "coordinates": [
          129.03212,
          35.14019
        ]
      },
      "properties": {
        "id": "waste-osm-way-1117943606",
        "name": "공용 쓰레기통",
        "type": "generalTrash",
        "address": "부산 해안권 (OSM)",
        "status": "available"
      }
    },
    {
      "type": "Feature",
      "geometry": {
        "type": "Point",
        "coordinates": [
          129.223332,
          35.189254
        ]
      },
      "properties": {
        "id": "waste-osm-node-3778893973",
        "name": "재활용 수거함",
        "type": "recycling",
        "address": "부산 해안권 (OSM)",
        "status": "available"
      }
    },
    {
      "type": "Feature",
      "geometry": {
        "type": "Point",
        "coordinates": [
          129.017934,
          35.06251
        ]
      },
      "properties": {
        "id": "waste-osm-node-6543955585",
        "name": "재활용 수거함",
        "type": "recycling",
        "address": "부산 해안권 (OSM)",
        "status": "available"
      }
    },
    {
      "type": "Feature",
      "geometry": {
        "type": "Point",
        "coordinates": [
          129.025462,
          35.164977
        ]
      },
      "properties": {
        "id": "waste-osm-node-13282472809",
        "name": "재활용 수거함",
        "type": "recycling",
        "address": "부산 해안권 (OSM)",
        "status": "available"
      }
    },
    {
      "type": "Feature",
      "geometry": {
        "type": "Point",
        "coordinates": [
          129.095493,
          35.173668
        ]
      },
      "properties": {
        "id": "waste-osm-node-13872633841",
        "name": "재활용 수거함",
        "type": "recycling",
        "address": "연수로 225",
        "status": "available"
      }
    },
    {
      "type": "Feature",
      "geometry": {
        "type": "Point",
        "coordinates": [
          129.100959,
          35.185429
        ]
      },
      "properties": {
        "id": "waste-osm-node-13872633847",
        "name": "재활용 수거함",
        "type": "recycling",
        "address": "고분로 170",
        "status": "available"
      }
    },
    {
      "type": "Feature",
      "geometry": {
        "type": "Point",
        "coordinates": [
          129.103078,
          35.187533
        ]
      },
      "properties": {
        "id": "waste-osm-node-13872633851",
        "name": "재활용 수거함",
        "type": "recycling",
        "address": "과정로 221",
        "status": "available"
      }
    },
    {
      "type": "Feature",
      "geometry": {
        "type": "Point",
        "coordinates": [
          129.098146,
          35.187751
        ]
      },
      "properties": {
        "id": "waste-osm-node-13872633859",
        "name": "재활용 수거함",
        "type": "recycling",
        "address": "과정로 265",
        "status": "available"
      }
    },
    {
      "type": "Feature",
      "geometry": {
        "type": "Point",
        "coordinates": [
          129.107447,
          35.18509
        ]
      },
      "properties": {
        "id": "waste-osm-node-13872633861",
        "name": "재활용 수거함",
        "type": "recycling",
        "address": "과정로 152",
        "status": "available"
      }
    },
    {
      "type": "Feature",
      "geometry": {
        "type": "Point",
        "coordinates": [
          129.090982,
          35.173644
        ]
      },
      "properties": {
        "id": "waste-osm-node-13872633863",
        "name": "재활용 수거함",
        "type": "recycling",
        "address": "연수로 184",
        "status": "available"
      }
    },
    {
      "type": "Feature",
      "geometry": {
        "type": "Point",
        "coordinates": [
          129.077053,
          35.176842
        ]
      },
      "properties": {
        "id": "waste-osm-node-13872633864",
        "name": "재활용 수거함",
        "type": "recycling",
        "address": "연제로 21",
        "status": "available"
      }
    },
    {
      "type": "Feature",
      "geometry": {
        "type": "Point",
        "coordinates": [
          129.086722,
          35.175047
        ]
      },
      "properties": {
        "id": "waste-osm-node-13872633868",
        "name": "재활용 수거함",
        "type": "recycling",
        "address": "월드컵대로 2",
        "status": "available"
      }
    },
    {
      "type": "Feature",
      "geometry": {
        "type": "Point",
        "coordinates": [
          129.082923,
          35.17531
        ]
      },
      "properties": {
        "id": "waste-osm-node-13872633882",
        "name": "재활용 수거함",
        "type": "recycling",
        "address": "연수로 109-1",
        "status": "available"
      }
    },
    {
      "type": "Feature",
      "geometry": {
        "type": "Point",
        "coordinates": [
          129.095163,
          35.173361
        ]
      },
      "properties": {
        "id": "waste-osm-node-13872633884",
        "name": "재활용 수거함",
        "type": "recycling",
        "address": "연수로 224",
        "status": "available"
      }
    },
    {
      "type": "Feature",
      "geometry": {
        "type": "Point",
        "coordinates": [
          129.106297,
          35.187659
        ]
      },
      "properties": {
        "id": "waste-osm-node-13872633894",
        "name": "재활용 수거함",
        "type": "recycling",
        "address": "과정로 191",
        "status": "available"
      }
    },
    {
      "type": "Feature",
      "geometry": {
        "type": "Point",
        "coordinates": [
          129.108169,
          35.180576
        ]
      },
      "properties": {
        "id": "waste-osm-node-13872633896",
        "name": "재활용 수거함",
        "type": "recycling",
        "address": "과정로114번길 18-22",
        "status": "available"
      }
    },
    {
      "type": "Feature",
      "geometry": {
        "type": "Point",
        "coordinates": [
          129.101854,
          35.18785
        ]
      },
      "properties": {
        "id": "waste-osm-node-13872634006",
        "name": "재활용 수거함",
        "type": "recycling",
        "address": "과정로 232-1",
        "status": "available"
      }
    },
    {
      "type": "Feature",
      "geometry": {
        "type": "Point",
        "coordinates": [
          129.106995,
          35.186697
        ]
      },
      "properties": {
        "id": "waste-osm-node-13872634008",
        "name": "재활용 수거함",
        "type": "recycling",
        "address": "과정로 171",
        "status": "available"
      }
    },
    {
      "type": "Feature",
      "geometry": {
        "type": "Point",
        "coordinates": [
          129.106926,
          35.183919
        ]
      },
      "properties": {
        "id": "waste-osm-node-13872634010",
        "name": "재활용 수거함",
        "type": "recycling",
        "address": "과정로 139-1",
        "status": "available"
      }
    },
    {
      "type": "Feature",
      "geometry": {
        "type": "Point",
        "coordinates": [
          129.090132,
          35.174318
        ]
      },
      "properties": {
        "id": "waste-osm-node-13872634012",
        "name": "재활용 수거함",
        "type": "recycling",
        "address": "연수로 177",
        "status": "available"
      }
    },
    {
      "type": "Feature",
      "geometry": {
        "type": "Point",
        "coordinates": [
          129.081394,
          35.175144
        ]
      },
      "properties": {
        "id": "waste-osm-node-13872634014",
        "name": "재활용 수거함",
        "type": "recycling",
        "address": "연수로 96-1",
        "status": "available"
      }
    },
    {
      "type": "Feature",
      "geometry": {
        "type": "Point",
        "coordinates": [
          129.084887,
          35.179306
        ]
      },
      "properties": {
        "id": "waste-osm-node-13872634016",
        "name": "재활용 수거함",
        "type": "recycling",
        "address": "월드컵대로 54",
        "status": "available"
      }
    },
    {
      "type": "Feature",
      "geometry": {
        "type": "Point",
        "coordinates": [
          129.08357,
          35.18567
        ]
      },
      "properties": {
        "id": "waste-osm-node-13872634018",
        "name": "재활용 수거함",
        "type": "recycling",
        "address": "고분로 12",
        "status": "available"
      }
    },
    {
      "type": "Feature",
      "geometry": {
        "type": "Point",
        "coordinates": [
          129.100492,
          35.18622
        ]
      },
      "properties": {
        "id": "waste-osm-node-13872634020",
        "name": "재활용 수거함",
        "type": "recycling",
        "address": "과정로225번길 46",
        "status": "available"
      }
    },
    {
      "type": "Feature",
      "geometry": {
        "type": "Point",
        "coordinates": [
          129.11372,
          35.183774
        ]
      },
      "properties": {
        "id": "waste-osm-node-13872634022",
        "name": "재활용 수거함",
        "type": "recycling",
        "address": "좌수영로 225",
        "status": "available"
      }
    },
    {
      "type": "Feature",
      "geometry": {
        "type": "Point",
        "coordinates": [
          129.124583,
          35.179489
        ]
      },
      "properties": {
        "id": "waste-osm-way-400788752",
        "name": "공용 쓰레기통",
        "type": "generalTrash",
        "address": "부산 해안권 (OSM)",
        "status": "available"
      }
    },
    {
      "type": "Feature",
      "geometry": {
        "type": "Point",
        "coordinates": [
          129.124459,
          35.17942
        ]
      },
      "properties": {
        "id": "waste-osm-way-400788754",
        "name": "공용 쓰레기통",
        "type": "generalTrash",
        "address": "부산 해안권 (OSM)",
        "status": "available"
      }
    },
    {
      "type": "Feature",
      "geometry": {
        "type": "Point",
        "coordinates": [
          129.120195,
          35.188053
        ]
      },
      "properties": {
        "id": "waste-osm-way-400788758",
        "name": "공용 쓰레기통",
        "type": "generalTrash",
        "address": "부산 해안권 (OSM)",
        "status": "available"
      }
    },
    {
      "type": "Feature",
      "geometry": {
        "type": "Point",
        "coordinates": [
          129.120023,
          35.188042
        ]
      },
      "properties": {
        "id": "waste-osm-way-400788759",
        "name": "공용 쓰레기통",
        "type": "generalTrash",
        "address": "부산 해안권 (OSM)",
        "status": "available"
      }
    },
    {
      "type": "Feature",
      "geometry": {
        "type": "Point",
        "coordinates": [
          129.13613,
          35.171642
        ]
      },
      "properties": {
        "id": "waste-osm-way-453190472",
        "name": "공용 쓰레기통",
        "type": "generalTrash",
        "address": "부산 해안권 (OSM)",
        "status": "available"
      }
    },
    {
      "type": "Feature",
      "geometry": {
        "type": "Point",
        "coordinates": [
          129.136025,
          35.171511
        ]
      },
      "properties": {
        "id": "waste-osm-way-453190473",
        "name": "공용 쓰레기통",
        "type": "generalTrash",
        "address": "부산 해안권 (OSM)",
        "status": "available"
      }
    },
    {
      "type": "Feature",
      "geometry": {
        "type": "Point",
        "coordinates": [
          129.176843,
          35.181845
        ]
      },
      "properties": {
        "id": "waste-osm-way-471693808",
        "name": "공용 쓰레기통",
        "type": "generalTrash",
        "address": "부산 해안권 (OSM)",
        "status": "available"
      }
    },
    {
      "type": "Feature",
      "geometry": {
        "type": "Point",
        "coordinates": [
          129.176783,
          35.181638
        ]
      },
      "properties": {
        "id": "waste-osm-way-471693809",
        "name": "공용 쓰레기통",
        "type": "generalTrash",
        "address": "부산 해안권 (OSM)",
        "status": "available"
      }
    },
    {
      "type": "Feature",
      "geometry": {
        "type": "Point",
        "coordinates": [
          129.084503,
          35.134627
        ]
      },
      "properties": {
        "id": "waste-osm-node-5004415995",
        "name": "남구청(못골역)",
        "type": "generalTrash",
        "address": "부산 해안권 (OSM)",
        "status": "available"
      }
    },
    {
      "type": "Feature",
      "geometry": {
        "type": "Point",
        "coordinates": [
          129.102098,
          35.154512
        ]
      },
      "properties": {
        "id": "waste-osm-node-11849967994",
        "name": "공용 쓰레기통",
        "type": "generalTrash",
        "address": "부산 해안권 (OSM)",
        "status": "available"
      }
    },
    {
      "type": "Feature",
      "geometry": {
        "type": "Point",
        "coordinates": [
          129.127026,
          35.153427
        ]
      },
      "properties": {
        "id": "waste-osm-node-12876843702",
        "name": "공용 쓰레기통",
        "type": "generalTrash",
        "address": "부산 해안권 (OSM)",
        "status": "available"
      }
    },
    {
      "type": "Feature",
      "geometry": {
        "type": "Point",
        "coordinates": [
          129.120592,
          35.132292
        ]
      },
      "properties": {
        "id": "waste-osm-node-13457051111",
        "name": "공용 쓰레기통",
        "type": "generalTrash",
        "address": "부산 해안권 (OSM)",
        "status": "available"
      }
    },
    {
      "type": "Feature",
      "geometry": {
        "type": "Point",
        "coordinates": [
          129.095499,
          35.173668
        ]
      },
      "properties": {
        "id": "waste-osm-node-13872633840",
        "name": "공용 쓰레기통",
        "type": "generalTrash",
        "address": "연수로 225",
        "status": "available"
      }
    },
    {
      "type": "Feature",
      "geometry": {
        "type": "Point",
        "coordinates": [
          129.100964,
          35.185429
        ]
      },
      "properties": {
        "id": "waste-osm-node-13872633846",
        "name": "공용 쓰레기통",
        "type": "generalTrash",
        "address": "고분로 170",
        "status": "available"
      }
    },
    {
      "type": "Feature",
      "geometry": {
        "type": "Point",
        "coordinates": [
          129.103083,
          35.187533
        ]
      },
      "properties": {
        "id": "waste-osm-node-13872633850",
        "name": "공용 쓰레기통",
        "type": "generalTrash",
        "address": "과정로 221",
        "status": "available"
      }
    },
    {
      "type": "Feature",
      "geometry": {
        "type": "Point",
        "coordinates": [
          129.098152,
          35.187751
        ]
      },
      "properties": {
        "id": "waste-osm-node-13872633858",
        "name": "공용 쓰레기통",
        "type": "generalTrash",
        "address": "과정로 265",
        "status": "available"
      }
    },
    {
      "type": "Feature",
      "geometry": {
        "type": "Point",
        "coordinates": [
          129.107452,
          35.18509
        ]
      },
      "properties": {
        "id": "waste-osm-node-13872633860",
        "name": "공용 쓰레기통",
        "type": "generalTrash",
        "address": "과정로 152",
        "status": "available"
      }
    },
    {
      "type": "Feature",
      "geometry": {
        "type": "Point",
        "coordinates": [
          129.090987,
          35.173644
        ]
      },
      "properties": {
        "id": "waste-osm-node-13872633862",
        "name": "공용 쓰레기통",
        "type": "generalTrash",
        "address": "연수로 184",
        "status": "available"
      }
    },
    {
      "type": "Feature",
      "geometry": {
        "type": "Point",
        "coordinates": [
          129.086728,
          35.175047
        ]
      },
      "properties": {
        "id": "waste-osm-node-13872633867",
        "name": "공용 쓰레기통",
        "type": "generalTrash",
        "address": "월드컵대로 2",
        "status": "available"
      }
    },
    {
      "type": "Feature",
      "geometry": {
        "type": "Point",
        "coordinates": [
          129.082929,
          35.17531
        ]
      },
      "properties": {
        "id": "waste-osm-node-13872633881",
        "name": "공용 쓰레기통",
        "type": "generalTrash",
        "address": "연수로 109-1",
        "status": "available"
      }
    },
    {
      "type": "Feature",
      "geometry": {
        "type": "Point",
        "coordinates": [
          129.095169,
          35.173361
        ]
      },
      "properties": {
        "id": "waste-osm-node-13872633883",
        "name": "공용 쓰레기통",
        "type": "generalTrash",
        "address": "연수로 224",
        "status": "available"
      }
    },
    {
      "type": "Feature",
      "geometry": {
        "type": "Point",
        "coordinates": [
          129.106302,
          35.187659
        ]
      },
      "properties": {
        "id": "waste-osm-node-13872633893",
        "name": "공용 쓰레기통",
        "type": "generalTrash",
        "address": "과정로 191",
        "status": "available"
      }
    },
    {
      "type": "Feature",
      "geometry": {
        "type": "Point",
        "coordinates": [
          129.108175,
          35.180576
        ]
      },
      "properties": {
        "id": "waste-osm-node-13872633895",
        "name": "공용 쓰레기통",
        "type": "generalTrash",
        "address": "과정로114번길 18-22",
        "status": "available"
      }
    },
    {
      "type": "Feature",
      "geometry": {
        "type": "Point",
        "coordinates": [
          129.10186,
          35.18785
        ]
      },
      "properties": {
        "id": "waste-osm-node-13872634005",
        "name": "공용 쓰레기통",
        "type": "generalTrash",
        "address": "과정로 232-1",
        "status": "available"
      }
    },
    {
      "type": "Feature",
      "geometry": {
        "type": "Point",
        "coordinates": [
          129.107001,
          35.186697
        ]
      },
      "properties": {
        "id": "waste-osm-node-13872634007",
        "name": "공용 쓰레기통",
        "type": "generalTrash",
        "address": "과정로 171",
        "status": "available"
      }
    },
    {
      "type": "Feature",
      "geometry": {
        "type": "Point",
        "coordinates": [
          129.106932,
          35.183919
        ]
      },
      "properties": {
        "id": "waste-osm-node-13872634009",
        "name": "공용 쓰레기통",
        "type": "generalTrash",
        "address": "과정로 139-1",
        "status": "available"
      }
    },
    {
      "type": "Feature",
      "geometry": {
        "type": "Point",
        "coordinates": [
          129.090137,
          35.174318
        ]
      },
      "properties": {
        "id": "waste-osm-node-13872634011",
        "name": "공용 쓰레기통",
        "type": "generalTrash",
        "address": "연수로 177",
        "status": "available"
      }
    },
    {
      "type": "Feature",
      "geometry": {
        "type": "Point",
        "coordinates": [
          129.084893,
          35.179306
        ]
      },
      "properties": {
        "id": "waste-osm-node-13872634015",
        "name": "공용 쓰레기통",
        "type": "generalTrash",
        "address": "월드컵대로 54",
        "status": "available"
      }
    },
    {
      "type": "Feature",
      "geometry": {
        "type": "Point",
        "coordinates": [
          129.083576,
          35.18567
        ]
      },
      "properties": {
        "id": "waste-osm-node-13872634017",
        "name": "공용 쓰레기통",
        "type": "generalTrash",
        "address": "고분로 12",
        "status": "available"
      }
    },
    {
      "type": "Feature",
      "geometry": {
        "type": "Point",
        "coordinates": [
          129.100497,
          35.18622
        ]
      },
      "properties": {
        "id": "waste-osm-node-13872634019",
        "name": "공용 쓰레기통",
        "type": "generalTrash",
        "address": "과정로225번길 46",
        "status": "available"
      }
    },
    {
      "type": "Feature",
      "geometry": {
        "type": "Point",
        "coordinates": [
          129.113726,
          35.183774
        ]
      },
      "properties": {
        "id": "waste-osm-node-13872634021",
        "name": "공용 쓰레기통",
        "type": "generalTrash",
        "address": "좌수영로 225",
        "status": "available"
      }
    }
  ]
}
